[{"OBJECT_NAME":"KUIPER-00025","OBJECT_ID":"2025-088R","EPOCH":"2026-03-09T06:58:33.870720","MEAN_MOTION":14.83523412,"ECCENTRICITY":4.92e-5,"INCLINATION":51.9016,"RA_OF_ASC_NODE":103.1273,"ARG_OF_PERICENTER":19.3968,"MEAN_ANOMALY":340.7015,"EPHEMERIS_TYPE":0,"CLASSIFICATION_TYPE":"U","NORAD_CAT_ID":63739,"ELEMENT_SET_NO":999,"REV_AT_EPOCH":4774,"BSTAR":0.00061010528,"MEAN_MOTION_DOT":4.845e-5,"MEAN_MOTION_DDOT":0},{"OBJECT_NAME":"COSMOS 2251 DEB","OBJECT_ID":"1993-036AKJ","EPOCH":"2026-02-08T11:39:10.701792","MEAN_MOTION":14.69247187,"ECCENTRICITY":0.00699538,"INCLINATION":74.0147,"RA_OF_ASC_NODE":95.6951,"ARG_OF_PERICENTER":224.5568,"MEAN_ANOMALY":134.9966,"EPHEMERIS_TYPE":0,"CLASSIFICATION_TYPE":"U","NORAD_CAT_ID":35440,"ELEMENT_SET_NO":999,"REV_AT_EPOCH":69613,"BSTAR":0.00049855646,"MEAN_MOTION_DOT":3.018e-5,"MEAN_MOTION_DDOT":0}]
